OBJECT_NAME,OBJECT_ID,EPOCH,MEAN_MOTION,ECCENTRICITY,INCLINATION,RA_OF_ASC_NODE,ARG_OF_PERICENTER,MEAN_ANOMALY,EPHEMERIS_TYPE,CLASSIFICATION_TYPE,NORAD_CAT_ID,ELEMENT_SET_NO,REV_AT_EPOCH,BSTAR,MEAN_MOTION_DOT,MEAN_MOTION_DDOT
GAOFEN-11 01,2018-063A,2026-06-06T05:37:46.090272,15.54965941,.00043701,97.1293,224.1466,35.4614,324.6930,0,U,43585,999,43864,.25715894E-3,.1714E-3,0
ICESAT-2,2018-070A,2026-06-06T03:42:23.703264,15.28216907,.00051154,92.0072,287.9997,123.4842,236.6896,0,U,43613,999,43077,.50550297E-3,.13906E-3,0
HYSIS,2018-096A,2026-06-06T07:36:06.105312,14.78672053,.00015897,97.9837,224.1493,112.8788,247.2591,0,U,43719,999,40581,.11567197E-3,.796E-5,0
KAZSTSAT,2018-099AB,2026-06-05T21:20:39.936768,14.99835795,.0007603,97.4264,189.3320,99.1101,261.0983,0,U,43783,999,40961,.11916911E-3,.142E-4,0
SAUDISAT 5A,2018-102A,2026-06-06T05:28:52.228128,15.27934087,.00101517,97.3067,219.0211,163.7610,196.3957,0,U,43831,999,41400,.25730758E-3,.6952E-4,0
SAUDISAT 5B,2018-102C,2026-06-06T05:58:41.295648,15.28196877,.00107731,97.3175,222.0912,166.3516,193.8018,0,U,43833,999,41412,.24692239E-3,.6723E-4,0
GAOFEN-10R,2019-066A,2026-06-06T06:59:17.541600,14.83037051,.00058836,98.0498,110.7915,158.2205,201.9260,0,U,44622,999,36076,.17300814E-3,.1353E-4,0
CARTOSAT-3,2019-081A,2026-06-06T03:47:29.803776,15.19205200,.00122032,97.4306,219.2022,185.2579,174.8530,0,U,44804,999,36179,.27383894E-3,.5707E-4,0
GAOFEN-12 01,2019-082A,2026-06-06T06:22:29.584416,14.80449681,.00025016,97.8101,163.9334,83.1307,277.0190,0,U,44819,999,35247,.67006844E-4,.462E-5,0
CSG-1,2019-092A,2026-06-06T07:36:43.304832,14.82155790,.00014468,97.8887,341.0772,91.0511,269.0868,0,U,44873,999,34986,.68904863E-4,.496E-5,0
NEMO-HD,2020-061F,2026-06-06T05:53:06.188064,15.44371047,.00026488,97.1919,219.3101,93.1296,267.0256,0,U,46277,999,32029,.31015851E-3,.14238E-3,0
SENTINEL-6A,2020-086A,2026-06-05T08:58:41.627424,12.80929664,.00079541,66.0384,159.5883,270.2058,89.8046,0,U,46984,999,25881,.26460715E-4,-.55E-6,0
CAS500-1,2021-022A,2026-06-06T06:25:46.177248,15.20205533,.00043745,97.3906,52.7413,345.3684,14.7424,0,U,47932,999,28910,.40111945E-3,.8629E-4,0
GAOFEN-12 02,2021-026A,2026-06-06T06:36:44.262720,14.80287770,.00033157,97.9920,155.5009,271.1392,88.9440,0,U,48079,999,28014,.65811804E-4,.448E-5,0
PLEIADES NEO 3,2021-034A,2026-06-05T13:40:50.363904,14.81673923,.00013942,97.8935,231.5042,99.1938,260.9433,0,U,48268,999,27593,.42290641E-4,.281E-5,0
PLEIADES NEO 4,2021-073E,2026-06-06T03:27:25.791264,14.81670310,.00013915,97.8928,232.0648,84.3469,275.7903,0,U,49070,999,25973,.63794892E-4,.45E-5,0
LANDSAT 9,2021-088A,2026-06-05T01:00:21.923424,14.57126109,.00015032,98.1854,226.3638,95.7050,264.4320,0,U,49260,999,24923,.10362107E-3,.422E-5,0
CSG-2,2022-008A,2026-06-06T06:48:04.387104,14.82167784,.00014956,97.8885,341.0391,82.8645,277.2738,0,U,51444,999,23497,.11283277E-3,.846E-5,0
GAOFEN-12 03,2022-069A,2026-06-06T07:16:57.453600,14.80015742,.00015125,97.8287,45.4473,109.2758,250.8618,0,U,52912,999,21300,.10566635E-3,.749E-5,0
SWOT,2022-173A,2026-06-05T23:37:22.414080,14.00168253,.00001735,77.6113,50.4334,95.1551,264.9621,0,U,54754,999,17758,.3091866E-5,.2E-7,0
GAOFEN-12 04,2023-123A,2026-06-06T07:43:01.867296,14.80207998,.00017793,97.9129,75.4953,88.0158,272.1258,0,U,57654,999,15102,.16118286E-3,.1173E-4,0
PARS 1,2024-039Q,2026-06-06T07:24:12.475008,15.45497558,.00107316,97.4823,137.8880,144.3998,215.7968,0,U,59065,999,12696,.28904446E-3,.13803E-3,0
RESURS-P 4,2024-061A,2026-06-06T06:58:38.019648,15.32068685,.00013471,97.2749,105.3801,131.6690,228.4667,0,U,59371,999,12209,.12198867E-3,.37E-4,0
LEGION 1,2024-081A,2026-06-05T22:40:34.218336,15.16588796,.00105021,97.5014,234.9224,53.9833,306.2372,0,U,59625,999,11583,.24954068E-3,.4812E-4,0
LEGION 2,2024-081B,2026-06-05T23:23:31.681536,15.16567701,.00118547,97.5014,235.0498,23.0023,337.1738,0,U,59626,999,11584,.24681348E-3,.4758E-4,0
ALOS-4 (DAICHI-4),2024-123A,2026-06-06T06:28:14.868192,14.79473969,.00016846,97.9239,254.5965,98.7302,261.4100,0,U,60182,999,10426,.23942031E-3,.1737E-4,0
LEGION 3,2024-146A,2026-06-06T03:02:14.516160,15.15952515,.00067981,45.0006,89.8712,99.5207,260.6440,0,U,60452,999,10034,.27258822E-3,.5059E-4,0
LEGION 4,2024-146B,2026-06-06T03:06:37.122048,15.15955299,.00139979,44.9996,181.7659,251.0112,108.9250,0,U,60453,999,9919,.23842393E-3,.4398E-4,0
SENTINEL-2C,2024-157A,2026-06-05T11:51:39.949632,14.30814562,.00012251,98.5692,231.4412,78.7103,281.4218,0,U,60989,999,9131,.6269551E-4,.121E-5,0
IONOSFERA-M 1,2024-199A,2026-06-06T03:39:45.762336,14.22752273,.00015998,98.7186,30.4407,125.2081,234.9247,0,U,61735,999,12613,.44541882E-4,.56E-6,0
