GAOFEN-11 01            
1 43585U 18063A   26157.23456123  .00017140  00000+0  25716-3 0  9996
2 43585  97.1293 224.1466 0004370  35.4614 324.6930 15.54965941438641
ICESAT-2                
1 43613U 18070A   26157.15444101  .00013906  00000+0  50550-3 0  9990
2 43613  92.0072 287.9997 0005115 123.4842 236.6896 15.28216907430778
HYSIS                   
1 43719U 18096A   26157.31673733  .00000796  00000+0  11567-3 0  9996
2 43719  97.9837 224.1493 0001589 112.8788 247.2591 14.78672053405813
KAZSTSAT                
1 43783U 18099AB  26156.88935112  .00001420  00000+0  11917-3 0  9997
2 43783  97.4264 189.3320 0007603  99.1101 261.0983 14.99835795409611
SAUDISAT 5A             
1 43831U 18102A   26157.22838227  .00006952  00000+0  25731-3 0  9998
2 43831  97.3067 219.0211 0010151 163.7610 196.3957 15.27934087414006
SAUDISAT 5B             
1 43833U 18102C   26157.24908907  .00006723  00000+0  24692-3 0  9996
2 43833  97.3175 222.0912 0010773 166.3516 193.8018 15.28196877414125
GAOFEN-10R              
1 44622U 19066A   26157.29117525  .00001353  00000+0  17301-3 0  9999
2 44622  98.0498 110.7915 0005883 158.2205 201.9260 14.83037051360763
CARTOSAT-3              
1 44804U 19081A   26157.15798384  .00005707  00000+0  27384-3 0  9990
2 44804  97.4306 219.2022 0012203 185.2579 174.8530 15.19205200361793
GAOFEN-12 01            
1 44819U 19082A   26157.26562019  .00000462  00000+0  67007-4 0  9993
2 44819  97.8101 163.9334 0002501  83.1307 277.0190 14.80449681352475
CSG-1                   
1 44873U 19092A   26157.31716788  .00000496  00000+0  68905-4 0  9999
2 44873  97.8887 341.0772 0001446  91.0511 269.0868 14.82155790349862
NEMO-HD                 
1 46277U 20061F   26157.24521051  .00014238  00000+0  31016-3 0  9997
2 46277  97.1919 219.3101 0002648  93.1296 267.0256 15.44371047320291
SENTINEL-6A             
1 46984U 20086A   26156.37409291 -.00000055  00000+0  26461-4 0  9995
2 46984  66.0384 159.5883 0007954 270.2058  89.8046 12.80929664258814
CAS500-1                
1 47932U 21022A   26157.26789557  .00008629  00000+0  40112-3 0  9997
2 47932  97.3906  52.7413 0004374 345.3684  14.7424 15.20205533289102
GAOFEN-12 02            
1 48079U 21026A   26157.27551230  .00000448  00000+0  65812-4 0  9996
2 48079  97.9920 155.5009 0003315 271.1392  88.9440 14.80287770280140
PLEIADES NEO 3          
1 48268U 21034A   26156.57002736  .00000281  00000+0  42291-4 0  9990
2 48268  97.8935 231.5042 0001394  99.1938 260.9433 14.81673923275931
PLEIADES NEO 4          
1 49070U 21073E   26157.14404851  .00000450  00000+0  63795-4 0  9993
2 49070  97.8928 232.0648 0001391  84.3469 275.7903 14.81670310259738
LANDSAT 9               
1 49260U 21088A   26156.04192041  .00000422  00000+0  10362-3 0  9993
2 49260  98.1854 226.3638 0001503  95.7050 264.4320 14.57126109249230
CSG-2                   
1 51444U 22008A   26157.28338411  .00000846  00000+0  11283-3 0  9996
2 51444  97.8885 341.0391 0001495  82.8645 277.2738 14.82167784234977
GAOFEN-12 03            
1 52912U 22069A   26157.30344275  .00000749  00000+0  10567-3 0  9998
2 52912  97.8287  45.4473 0001512 109.2758 250.8618 14.80015742213008
SWOT                    
1 54754U 22173A   26156.98428720  .00000002  00000+0  30919-5 0  9998
2 54754  77.6113  50.4334 0000173  95.1551 264.9621 14.00168253177586
GAOFEN-12 04            
1 57654U 23123A   26157.32154939  .00001173  00000+0  16118-3 0  9996
2 57654  97.9129  75.4953 0001779  88.0158 272.1258 14.80207998151027
PARS 1                  
1 59065U 24039Q   26157.30847772  .00013803  00000+0  28904-3 0  9992
2 59065  97.4823 137.8880 0010731 144.3998 215.7968 15.45497558126960
RESURS-P 4              
1 59371U 24061A   26157.29071782  .00003700  00000+0  12199-3 0  9999
2 59371  97.2749 105.3801 0001347 131.6690 228.4667 15.32068685122097
LEGION 1                
1 59625U 24081A   26156.94484049  .00004812  00000+0  24954-3 0  9995
2 59625  97.5014 234.9224 0010502  53.9833 306.2372 15.16588796115837
LEGION 2                
1 59626U 24081B   26156.97467224  .00004758  00000+0  24681-3 0  9991
2 59626  97.5014 235.0498 0011854  23.0023 337.1738 15.16567701115846
ALOS-4 (DAICHI-4)       
1 60182U 24123A   26157.26961653  .00001737  00000+0  23942-3 0  9998
2 60182  97.9239 254.5965 0001684  98.7302 261.4100 14.79473969104268
LEGION 3                
1 60452U 24146A   26157.12655690  .00005059  00000+0  27259-3 0  9995
2 60452  45.0006  89.8712 0006798  99.5207 260.6440 15.15952515100340
LEGION 4                
1 60453U 24146B   26157.12959632  .00004398  00000+0  23842-3 0  9998
2 60453  44.9996 181.7659 0013997 251.0112 108.9250 15.15955299 99193
SENTINEL-2C             
1 60989U 24157A   26156.49421238  .00000121  00000+0  62696-4 0  9990
2 60989  98.5692 231.4412 0001225  78.7103 281.4218 14.30814562 91310
IONOSFERA-M 1           
1 61735U 24199A   26157.15261299  .00000056  00000+0  44542-4 0  9996
2 61735  98.7186  30.4407 0001599 125.2081 234.9247 14.22752273126133
